{"type": "FeatureCollection", "features": [{"type": "Feature", "properties": {"norad_id": 43879, "name": "ISAT", "group": "active", "lat": -59.96702993684212, "lon": 45.73847149797679, "alt_km": 766.3189912239632, "timestamp": "2025-12-02T03:45:38.774489+00:00", "meta": {"OBJECT_NAME": "ISAT", "OBJECT_ID": "2018-111D", "EPOCH": "2025-12-01T12:06:44.563680", "MEAN_MOTION": 15.4058872, "ECCENTRICITY": 0.0004718, "INCLINATION": 97.5898, "RA_OF_ASC_NODE": 254.764, "ARG_OF_PERICENTER": 323.7097, "MEAN_ANOMALY": 36.3828, "EPHEMERIS_TYPE": 0, "CLASSIFICATION_TYPE": "U", "NORAD_CAT_ID": 43879, "ELEMENT_SET_NO": 999, "REV_AT_EPOCH": 38051, "BSTAR": 0.001004, "MEAN_MOTION_DOT": 0.00040932, "MEAN_MOTION_DDOT": 0}, "tle": {"line1": "1 44078U 19018A   25335.89124300  .00000283  00000+0  96327-4 0  9990", "line2": "2 44078  98.4951  30.4908 0020008  92.1710 268.1772 14.43617785351597"}}, "geometry": {"type": "Point", "coordinates": [45.73847149797679, -59.96702993684212]}}, {"type": "Feature", "properties": {"norad_id": 49399, "name": "Z-SAT", "group": "active", "lat": 24.201547552978504, "lon": -123.10305123004319, "alt_km": 509.25872640862235, "timestamp": "2025-12-02T03:45:38.774548+00:00", "meta": {"OBJECT_NAME": "Z-SAT", "OBJECT_ID": "2021-102E", "EPOCH": "2025-12-01T21:19:56.124192", "MEAN_MOTION": 15.16267729, "ECCENTRICITY": 0.0016373, "INCLINATION": 97.3603, "RA_OF_ASC_NODE": 12.1594, "ARG_OF_PERICENTER": 210.5844, "MEAN_ANOMALY": 149.4436, "EPHEMERIS_TYPE": 0, "CLASSIFICATION_TYPE": "U", "NORAD_CAT_ID": 49399, "ELEMENT_SET_NO": 999, "REV_AT_EPOCH": 22352, "BSTAR": 0.00025409, "MEAN_MOTION_DOT": 4.868e-05, "MEAN_MOTION_DDOT": 0}, "tle": {"line1": "1 62626U 25009T   25335.20597490  .00011335  00000+0  54551-3 0  9997", "line2": "2 62626  97.4149  52.6085 0001741 289.1974  70.9071 15.18934343 48644"}}, "geometry": {"type": "Point", "coordinates": [-123.10305123004319, 24.201547552978504]}}]}